0 FENGYUN 1C DEB
1 31224U 99025BLE 13281.39237462  .00000466  00000-0  19986-3 0  3860
2 31224 098.8214 332.7970 0171615 180.6512 179.4509 14.21946680339361
0 FENGYUN 1C DEB
1 31224U 99025BLE 13284.34778797  .00000488  00000-0  20796-3 0  3875
2 31224 098.8212 335.7539 0171744 172.2018 188.2018 14.21950436339787
0 FENGYUN 1C DEB
1 31224U 99025BLE 13287.37355722  .00000522  00000-0  22153-3 0  3889
2 31224 098.8214 338.7824 0171264 163.5050 197.1934 14.21954725340216
0 FENGYUN 1C DEB
1 31224U 99025BLE 13290.32894538  .00000549  00000-0  23147-3 0  3895
2 31224 098.8205 341.7369 0171923 154.7800 206.1930 14.21959004340639
0 FENGYUN 1C DEB
1 31224U 99025BLE 13291.38443753  .00000582  00000-0  24383-3 0  3903
2 31224 098.8211 342.7955 0173052 151.4473 209.6395 14.21961185340785
0 FENGYUN 1C DEB
1 31224U 99025BLE 13294.97310009  .00000641  00000-0  26651-3 0  3915
2 31224 098.8191 346.3815 0173789 141.0206 220.3813 14.21967518341291
